CCSDS_OMM_VERS,COMMENT,CREATION_DATE,ORIGINATOR,OBJECT_NAME,OBJECT_ID,CENTER_NAME,REF_FRAME,TIME_SYSTEM,MEAN_ELEMENT_THEORY,EPOCH,MEAN_MOTION,ECCENTRICITY,INCLINATION,RA_OF_ASC_NODE,ARG_OF_PERICENTER,MEAN_ANOMALY,EPHEMERIS_TYPE,CLASSIFICATION_TYPE,NORAD_CAT_ID,ELEMENT_SET_NO,REV_AT_EPOCH,BSTAR,MEAN_MOTION_DOT,MEAN_MOTION_DDOT,SEMIMAJOR_AXIS,PERIOD,APOAPSIS,PERIAPSIS,OBJECT_TYPE,RCS_SIZE,COUNTRY_CODE,LAUNCH_DATE,SITE,DECAY_DATE,FILE,GP_ID,TLE_LINE0,TLE_LINE1,TLE_LINE2
"2.0","GENERATED VIA SPACE-TRACK.ORG API","2020-12-10T17:12:53","18 SPCS","HST","1990-037B","EARTH","TEME","UTC","SGP4","2020-12-10T04:16:33.221856","15.09507921","0.00027130","28.4691","237.3311","180.6429","312.1357","0","U","20580","999","48250","0.00004057200000","0.00000849","0.0000000000000","6915.839","95.395","539.580","535.828","PAYLOAD","LARGE","US","1990-04-24","AFETR","","2900598","167403430","0 HST","1 20580U 90037B   20345.17816229  .00000849  00000-0  40572-4 0  9997","2 20580  28.4691 237.3311 0002713 180.6429 312.1357 15.09507921482500"
"2.0","GENERATED VIA SPACE-TRACK.ORG API","2020-12-11T03:25:56","18 SPCS","HST","1990-037B","EARTH","TEME","UTC","SGP4","2020-12-10T21:23:23.548128","15.09508443","0.00026880","28.4690","232.6138","188.3658","227.1467","0","U","20580","999","48261","0.00003747300000","0.00000798","0.0000000000000","6915.837","95.395","539.561","535.844","PAYLOAD","LARGE","US","1990-04-24","AFETR","","2900834","167451375","0 HST","1 20580U 90037B   20345.89124477  .00000798  00000-0  37473-4 0  9992","2 20580  28.4690 232.6138 0002688 188.3658 227.1467 15.09508443482613"
"2.0","GENERATED VIA SPACE-TRACK.ORG API","2020-12-11T20:18:04","18 SPCS","HST","1990-037B","EARTH","TEME","UTC","SGP4","2020-12-11T02:25:15.722688","15.09508627","0.00026770","28.4690","231.2270","190.6907","286.2666","0","U","20580","999","48264","0.00003681700000","0.00000787","0.0000000000000","6915.837","95.395","539.553","535.851","PAYLOAD","LARGE","US","1990-04-24","AFETR","","2901310","167505475","0 HST","1 20580U 90037B   20346.10087642  .00000787  00000-0  36817-4 0  9998","2 20580  28.4690 231.2270 0002677 190.6907 286.2666 15.09508627482640"
"2.0","GENERATED VIA SPACE-TRACK.ORG API","2020-12-12T05:34:55","18 SPCS","HST","1990-037B","EARTH","TEME","UTC","SGP4","2020-12-11T21:12:26.330112","15.09508888","0.00026470","28.4689","226.0486","199.2062","219.8895","0","U","20580","999","48276","0.00003116500000","0.00000694","0.0000000000000","6915.836","95.395","539.532","535.870","PAYLOAD","LARGE","US","1990-04-24","AFETR","","2901490","167551224","0 HST","1 20580U 90037B   20346.88363808  .00000694  00000-0  31165-4 0  9992","2 20580  28.4689 226.0486 0002647 199.2062 219.8895 15.09508888482761"
"2.0","GENERATED VIA SPACE-TRACK.ORG API","2020-12-12T20:38:44","18 SPCS","HST","1990-037B","EARTH","TEME","UTC","SGP4","2020-12-12T02:14:17.951712","15.09509049","0.00026350","28.4688","224.6619","201.6182","278.8878","0","U","20580","999","48279","0.00003057800000","0.00000684","0.0000000000000","6915.836","95.395","539.523","535.878","PAYLOAD","LARGE","US","1990-04-24","AFETR","","2901853","167602534","0 HST","1 20580U 90037B   20347.09326333  .00000684  00000-0  30578-4 0  9994","2 20580  28.4688 224.6619 0002635 201.6182 278.8878 15.09509049482799"
"2.0","GENERATED VIA SPACE-TRACK.ORG API","2020-12-12T07:06:09","18 SPCS","HST","1990-037B","EARTH","TEME","UTC","SGP4","2020-12-12T02:14:17.951712","15.09509049","0.00026350","28.4688","224.6619","201.6182","278.8878","0","U","20580","999","48291","0.00003057800000","0.00000684","0.0000000000000","6915.836","95.395","539.523","535.878","PAYLOAD","LARGE","US","1990-04-24","AFETR","","2901656","167593861","0 HST","1 20580U 90037B   20347.09326333  .00000684  00000-0  30578-4 0  9994","2 20580  28.4688 224.6619 0002635 201.6182 278.8878 15.09509049482913"
"2.0","GENERATED VIA SPACE-TRACK.ORG API","2020-12-13T04:10:27","18 SPCS","HST","1990-037B","EARTH","TEME","UTC","SGP4","2020-12-12T22:25:25.147776","15.09509693","0.00025960","28.4687","219.0979","210.7316","169.3264","0","U","20580","999","48292","0.00002860200000","0.00000652","0.0000000000000","6915.834","95.395","539.494","535.903","PAYLOAD","LARGE","US","1990-04-24","AFETR","","2902033","167650701","0 HST","1 20580U 90037B   20347.93431884 +.00000652 +00000-0 +28602-4 0  9995","2 20580 028.4687 219.0979 0002596 210.7316 169.3264 15.09509693482924"
"2.0","GENERATED VIA SPACE-TRACK.ORG API","2020-12-13T20:07:11","18 SPCS","HST","1990-037B","EARTH","TEME","UTC","SGP4","2020-12-13T02:01:21.880128","15.09509812","0.00025880","28.4687","218.1058","212.4142","264.1889","0","U","20580","999","48294","0.00002828400000","0.00000647","0.0000000000000","6915.833","95.395","539.488","535.908","PAYLOAD","LARGE","US","1990-04-24","AFETR","","2902446","167702729","0 HST","1 20580U 90037B   20348.08428102  .00000647  00000-0  28284-4 0  9991","2 20580  28.4687 218.1058 0002588 212.4142 264.1889 15.09509812482941"
"2.0","GENERATED VIA SPACE-TRACK.ORG API","2020-12-13T15:06:10","18 SPCS","HST","1990-037B","EARTH","TEME","UTC","SGP4","2020-12-13T08:34:28.845120","15.09510084","0.00025810","28.4687","216.2997","215.5945","307.4813","0","U","20580","999","48311","0.00002825200000","0.00000646","0.0000000000000","6915.832","95.395","539.482","535.912","PAYLOAD","LARGE","US","1990-04-24","AFETR","","2902432","167696984","0 HST","1 20580U 90037B   20348.35727830  .00000646  00000-0  28252-4 0  9995","2 20580  28.4687 216.2997 0002581 215.5945 307.4813 15.09510084483111"
"2.0","GENERATED VIA SPACE-TRACK.ORG API","2020-12-14T03:53:25","18 SPCS","HST","1990-037B","EARTH","TEME","UTC","SGP4","2020-12-13T22:13:23.939328","15.09510454","0.00025670","28.4687","212.5376","221.9022","157.7131","0","U","20580","999","48307","0.00002668100000","0.00000620","0.0000000000000","6915.831","95.395","539.472","535.921","PAYLOAD","LARGE","US","1990-04-24","AFETR","","2902641","167750573","0 HST","1 20580U 90037B   20348.92597152  .00000620  00000-0  26681-4 0  9996","2 20580  28.4687 212.5376 0002567 221.9022 157.7131 15.09510454483077"
"2.0","GENERATED VIA SPACE-TRACK.ORG API","2020-12-14T19:41:07","18 SPCS","HST","1990-037B","EARTH","TEME","UTC","SGP4","2020-12-14T08:22:35.321952","15.09510748","0.00025580","28.4686","209.7388","226.6734","296.4451","0","U","20580","999","48313","0.00002569800000","0.00000604","0.0000000000000","6915.830","95.395","539.465","535.926","PAYLOAD","LARGE","US","1990-04-24","AFETR","","2902965","167801728","0 HST","1 20580U 90037B   20349.34901993  .00000604  00000-0  25698-4 0  9994","2 20580  28.4686 209.7388 0002558 226.6734 296.4451 15.09510748483138"
"2.0","GENERATED VIA SPACE-TRACK.ORG API","2020-12-14T22:46:10","18 SPCS","HST","1990-037B","EARTH","TEME","UTC","SGP4","2020-12-14T18:59:18.284640","15.09511074","0.00025530","28.4686","206.8136","231.4539","179.2521","0","U","20580","999","48332","0.00002518000000","0.00000596","0.0000000000000","6915.829","95.395","539.460","535.929","PAYLOAD","LARGE","US","1990-04-24","AFETR","","2903082","167819937","0 HST","1 20580U 90037B   20349.79118385  .00000596  00000-0  25180-4 0  9994","2 20580  28.4686 206.8136 0002553 231.4539 179.2521 15.09511074483329"
"2.0","GENERATED VIA SPACE-TRACK.ORG API","2020-12-16T00:49:11","18 SPCS","HST","1990-037B","EARTH","TEME","UTC","SGP4","2020-12-15T08:10:45.268608","15.09511430","0.00025460","28.4686","203.1776","237.7202","285.6623","0","U","20580","999","48328","0.00002391000000","0.00000575","0.0000000000000","6915.828","95.395","539.454","535.933","PAYLOAD","LARGE","US","1990-04-24","AFETR","","2903454","167832023","0 HST","1 20580U 90037B   20350.34080172  .00000575  00000-0  23910-4 0  9995","2 20580  28.4686 203.1776 0002546 237.7202 285.6623 15.09511430483283"
"2.0","GENERATED VIA SPACE-TRACK.ORG API","2020-12-16T04:20:45","18 SPCS","HST","1990-037B","EARTH","TEME","UTC","SGP4","2020-12-15T20:40:32.412864","15.09511727","0.00025390","28.4685","199.7330","243.5323","234.9845","0","U","20580","999","48336","0.00002266000000","0.00000554","0.0000000000000","6915.827","95.395","539.448","535.937","PAYLOAD","LARGE","US","1990-04-24","AFETR","","2903457","167854236","0 HST","1 20580U 90037B   20350.86148626  .00000554  00000-0  22660-4 0  9999","2 20580  28.4685 199.7330 0002539 243.5323 234.9845 15.09511727483360"
"2.0","GENERATED VIA SPACE-TRACK.ORG API","2020-12-16T07:36:09","18 SPCS","HST","1990-037B","EARTH","TEME","UTC","SGP4","2020-12-15T20:40:32.412864","15.09511727","0.00025390","28.4685","199.7330","243.5323","234.9845","0","U","20580","999","48348","0.00002266000000","0.00000554","0.0000000000000","6915.827","95.395","539.448","535.937","PAYLOAD","LARGE","US","1990-04-24","AFETR","","2903699","167875820","0 HST","1 20580U 90037B   20350.86148626  .00000554  00000-0  22660-4 0  9999","2 20580  28.4685 199.7330 0002539 243.5323 234.9845 15.09511727483483"
"2.0","GENERATED VIA SPACE-TRACK.ORG API","2020-12-17T05:51:21","18 SPCS","HST","1990-037B","EARTH","TEME","UTC","SGP4","2020-12-16T21:58:50.193408","15.09512488","0.00025250","28.4685","192.7578","255.7187","203.8733","0","U","20580","999","48352","0.00002186000000","0.00000541","0.0000000000000","6915.825","95.395","539.436","535.944","PAYLOAD","LARGE","US","1990-04-24","AFETR","","2904134","167913039","0 HST","1 20580U 90037B   20351.91585872  .00000541  00000-0  21860-4 0  9991","2 20580  28.4685 192.7578 0002525 255.7187 203.8733 15.09512488483529"
"2.0","GENERATED VIA SPACE-TRACK.ORG API","2020-12-17T06:56:09","18 SPCS","HST","1990-037B","EARTH","TEME","UTC","SGP4","2020-12-16T23:39:24.736608","15.09512512","0.00025230","28.4684","192.2958","256.5606","223.3345","0","U","20580","999","48365","0.00002161400000","0.00000537","0.0000000000000","6915.825","95.395","539.435","535.945","PAYLOAD","LARGE","US","1990-04-24","AFETR","","2904310","167932543","0 HST","1 20580U 90037B   20351.98570297  .00000537  00000-0  21614-4 0  9995","2 20580  28.4684 192.2958 0002523 256.5606 223.3345 15.09512512483656"
